[{"OBJECT_NAME":"LKW-1","OBJECT_ID":"2017-077A","EPOCH":"2026-03-09T23:46:54.269760","MEAN_MOTION":15.23569891,"ECCENTRICITY":0.00030108,"INCLINATION":97.1124,"RA_OF_ASC_NODE":108.4614,"ARG_OF_PERICENTER":155.1803,"MEAN_ANOMALY":204.9581,"EPHEMERIS_TYPE":0,"CLASSIFICATION_TYPE":"U","NORAD_CAT_ID":43034,"ELEMENT_SET_NO":999,"REV_AT_EPOCH":45959,"BSTAR":0.0002203455,"MEAN_MOTION_DOT":5.204e-5,"MEAN_MOTION_DDOT":0},{"OBJECT_NAME":"HAWK-6A","OBJECT_ID":"2023-011D","EPOCH":"2026-03-09T16:08:26.246400","MEAN_MOTION":15.21907632,"ECCENTRICITY":0.00021565,"INCLINATION":40.4983,"RA_OF_ASC_NODE":210.5544,"ARG_OF_PERICENTER":2.866,"MEAN_ANOMALY":357.2161,"EPHEMERIS_TYPE":0,"CLASSIFICATION_TYPE":"U","NORAD_CAT_ID":55327,"ELEMENT_SET_NO":999,"REV_AT_EPOCH":17268,"BSTAR":0.00032723111,"MEAN_MOTION_DOT":7.421e-5,"MEAN_MOTION_DDOT":0}]
